[{"OBJECT_NAME":"BEIDOU-3 G3 (PRN 143)","OBJECT_ID":"2020-040A","EPOCH":"2026-03-07T01:06:21.643776","MEAN_MOTION":1.00274385,"ECCENTRICITY":0.0004574,"INCLINATION":2.1964,"RA_OF_ASC_NODE":67.1395,"ARG_OF_PERICENTER":319.6258,"MEAN_ANOMALY":265.0903,"EPHEMERIS_TYPE":0,"CLASSIFICATION_TYPE":"U","NORAD_CAT_ID":45807,"ELEMENT_SET_NO":999,"REV_AT_EPOCH":2104,"BSTAR":0,"MEAN_MOTION_DOT":-3.56e-6,"MEAN_MOTION_DDOT":0},{"OBJECT_NAME":"GALAXY 30 (WAAS/PRN 135)","OBJECT_ID":"2020-056C","EPOCH":"2026-03-07T03:22:38.728128","MEAN_MOTION":1.00271923,"ECCENTRICITY":0.0002041,"INCLINATION":0.0216,"RA_OF_ASC_NODE":152.145,"ARG_OF_PERICENTER":204.8651,"MEAN_ANOMALY":93.5172,"EPHEMERIS_TYPE":0,"CLASSIFICATION_TYPE":"U","NORAD_CAT_ID":46114,"ELEMENT_SET_NO":999,"REV_AT_EPOCH":2026,"BSTAR":0,"MEAN_MOTION_DOT":0,"MEAN_MOTION_DDOT":0},{"OBJECT_NAME":"QZS-1R (QZSS/PRN 196)","OBJECT_ID":"2021-096A","EPOCH":"2026-03-06T19:46:38.510112","MEAN_MOTION":1.00290649,"ECCENTRICITY":0.0747759,"INCLINATION":37.2488,"RA_OF_ASC_NODE":81.0937,"ARG_OF_PERICENTER":269.7649,"MEAN_ANOMALY":244.5984,"EPHEMERIS_TYPE":0,"CLASSIFICATION_TYPE":"U","NORAD_CAT_ID":49336,"ELEMENT_SET_NO":999,"REV_AT_EPOCH":1598,"BSTAR":0,"MEAN_MOTION_DOT":-2.65e-6,"MEAN_MOTION_DDOT":0},{"OBJECT_NAME":"QZS-6 (QZSS/PRN 200)","OBJECT_ID":"2025-023A","EPOCH":"2026-03-07T02:22:04.404576","MEAN_MOTION":1.00269602,"ECCENTRICITY":0.0001825,"INCLINATION":0.0301,"RA_OF_ASC_NODE":288.5034,"ARG_OF_PERICENTER":56.7759,"MEAN_ANOMALY":305.5247,"EPHEMERIS_TYPE":0,"CLASSIFICATION_TYPE":"U","NORAD_CAT_ID":62876,"ELEMENT_SET_NO":999,"REV_AT_EPOCH":393,"BSTAR":0,"MEAN_MOTION_DOT":-2.35e-6,"MEAN_MOTION_DDOT":0}]
